SENTINEL-2A             
1 40697U 15028A   26187.86503432  .00000051  00000+0  36123-4 0  9991
2 40697  98.5674 262.4372 0001223  95.0501 265.0822 14.30821162576541
SENTINEL-2B             
1 42063U 17013A   26187.85783929 -.00000072  00000+0 -10747-4 0  9995
2 42063  98.5681 262.3546 0001190  89.6491 270.4828 14.30813113487454
SENTINEL-2C             
1 60989U 24157A   26187.19351953  .00000118  00000+0  61531-4 0  9990
2 60989  98.5686 261.7062 0000937  94.8836 265.2454 14.30814003 95700
